[{"OBJECT_NAME":"STARLINK-4634","OBJECT_ID":"2022-125D","EPOCH":"2026-03-09T16:52:36.867072","MEAN_MOTION":15.08827311,"ECCENTRICITY":0.00013577,"INCLINATION":53.2171,"RA_OF_ASC_NODE":224.0959,"ARG_OF_PERICENTER":94.7248,"MEAN_ANOMALY":265.3899,"EPHEMERIS_TYPE":0,"CLASSIFICATION_TYPE":"U","NORAD_CAT_ID":53967,"ELEMENT_SET_NO":999,"REV_AT_EPOCH":18932,"BSTAR":-0.00010288006,"MEAN_MOTION_DOT":-1.924e-5,"MEAN_MOTION_DDOT":0},{"OBJECT_NAME":"OBJECT R","OBJECT_ID":"2023-091R","EPOCH":"2026-03-09T23:14:08.723328","MEAN_MOTION":15.13803604,"ECCENTRICITY":0.00168604,"INCLINATION":97.5196,"RA_OF_ASC_NODE":124.2169,"ARG_OF_PERICENTER":118.5914,"MEAN_ANOMALY":241.7016,"EPHEMERIS_TYPE":0,"CLASSIFICATION_TYPE":"U","NORAD_CAT_ID":57181,"ELEMENT_SET_NO":999,"REV_AT_EPOCH":14867,"BSTAR":0.00029975355,"MEAN_MOTION_DOT":5.364e-5,"MEAN_MOTION_DDOT":0}]
